S-NET D                 
1 43186U 18014G   26140.28757804  .00003667  00000+0  19220-3 0  9998
2 43186  97.5381  45.2556 0009976 110.7437 249.4866 15.16375702454535
S-NET B                 
1 43187U 18014H   26140.29848664  .00003240  00000+0  17034-3 0  9993
2 43187  97.5388  45.2521 0010672 107.0176 253.2226 15.16345918454538
S-NET A                 
1 43188U 18014J   26140.41857477  .00003704  00000+0  19405-3 0  9999
2 43188  97.5396  45.5750 0010591 107.3467 252.8925 15.16383618454553
S-NET C                 
1 43189U 18014K   26140.30221507  .00003213  00000+0  16895-3 0  9992
2 43189  97.5414  45.5298 0012065 101.9220 258.3366 15.16336828453085
PAZ                     
1 43215U 18020A   26140.50818972  .00001142  00000+0  57580-4 0  9995
2 43215  97.4454 148.2875 0001635  89.0568 271.0854 15.19154189456800
GOES 17                 
1 43226U 18022A   26140.50404338 -.00000188  00000+0  00000+0 0  9996
2 43226   0.8691  86.0721 0000393 319.5749 284.4834  1.00271292 30145
LKW-4                   
1 43236U 18025A   26140.45251507  .00029703  00000+0  36886-3 0  9990
2 43236  97.6342 309.2062 0002797  64.9056 295.2490 15.59964022455703
ZHUHAI-1 OVS-02         
1 43440U 18040B   26140.53822194  .00004918  00000+0  20203-3 0  9996
2 43440  97.0404 159.4143 0003982  30.4565 329.6904 15.24610484448502
ZHUHAI-1 OHS-02         
1 43441U 18040C   26140.53849662  .00005363  00000+0  21464-3 0  9991
2 43441  97.0387 166.3266 0008278 341.4473  18.6463 15.25431164110061
GAOFEN-6                
1 43484U 18048A   26140.49111962  .00000926  00000+0  13957-3 0  9994
2 43484  97.7768 204.1876 0010495 264.5941  95.4072 14.76596845429307
LUOJIA-1 01             
1 43485U 18048B   26140.52191025  .00001907  00000+0  21800-3 0  9993
2 43485  97.8104 219.1557 0008286 203.0869 156.9976 14.87169838430103
PAKTES 1A               
1 43529U 18056A   26140.56992546  .00001835  00000+0  15644-3 0  9991
2 43529  98.1234 295.8849 0021635 197.7770 162.2697 14.98927618427788
PRSS-1                  
1 43530U 18056B   26140.50695080  .00000743  00000+0  10025-3 0  9995
2 43530  97.7826 209.1422 0001880  90.0311 270.1118 14.81940813424332
HAIYANG-1C              
1 43609U 18068A   26140.47790840  .00000191  00000+0  83845-4 0  9999
2 43609  98.5195 213.1847 0011024 170.4607 189.6789 14.34169624403117
SSTL S1-4               
1 43618U 18071A   26140.53438552  .00001260  00000+0  11669-3 0  9991
2 43618  97.5061  13.2934 0001430  78.8405 281.2978 14.96182395418800
HAIYANG-2B              
1 43655U 18081A   26140.52575326 -.00000026  00000+0  17174-4 0  9991
2 43655  99.3289 149.6994 0001481  42.4666 317.6600 13.79306422381113
CFOSAT                  
1 43662U 18083A   26140.51074443  .00002118  00000+0  11204-3 0  9994
2 43662  97.3611 145.8575 0001496  62.6188 297.5197 15.16509778418244
TEN-KOH                 
1 43677U 18084G   26140.09326507  .00001293  00000+0  10157-3 0  9994
2 43677  98.0751 331.2758 0009016 207.9254 152.1488 15.02790360411944
DIWATA-2B               
1 43678U 18084H   26140.49311662  .00001707  00000+0  14130-3 0  9990
2 43678  98.1113 335.5101 0011669 265.6986  94.2903 15.00302426412069
STARS-AO                
1 43679U 18084J   26140.30184237  .00003763  00000+0  19591-3 0  9997
2 43679  98.0526 352.5576 0000694 236.0668 124.0497 15.16706442413241
AUTCUBE 2               
1 43681U 18084K   26140.00058037  .00002223  00000+0  14159-3 0  9990
2 43681  98.0729 344.6820 0010111 132.6960 227.5121 15.09872277412675
METOP-C                 
1 43689U 18087A   26140.47610736  .00000064  00000+0  49071-4 0  9995
2 43689  98.6658 200.5838 0000549 148.5647 211.5563 14.21503689390894
ES'HAIL 2               
1 43700U 18090A   26140.31297079  .00000139  00000+0  00000+0 0  9994
2 43700   0.0136 328.0862 0001281 119.2391 289.1097  1.00270255 27392
MOHAMMED VI-B           
1 43717U 18095A   26140.47063648  .00000249  00000+0  42506-4 0  9991
2 43717  97.9560 213.1756 0001236  82.3357 277.7994 14.77075901404098
HYSIS                   
1 43719U 18096A   26140.46682575  .00000637  00000+0  94131-4 0  9991
2 43719  97.9846 207.4297 0001022 114.9800 245.1517 14.78628642403323
COSMOS 2530 (RODNIK-S *)
1 43751U 18097A   26140.52463027  .00000041  00000+0  21983-3 0  9997
2 43751  82.5157 239.4459 0020799  97.2476 263.0969 12.42880457338851
COSMOS 2531 (RODNIK-S *)
1 43752U 18097B   26140.54759027  .00000051  00000+0  29287-3 0  9994
2 43752  82.5202 240.4808 0017968 115.0427 245.2521 12.42912083338871
COSMOS 2532 (RODNIK-S *)
1 43753U 18097C   26140.57579604  .00000016  00000+0  41915-4 0  9993
2 43753  82.5146 239.2618 0019338 117.0479 243.2577 12.42908677338846
MINXSS-2                
1 43758U 18099A   26140.45236976  .00024549  00000+0  52282-3 0  9994
2 43758  97.4542 215.9660 0006697  16.9082 343.2388 15.44912684409843
SIRION PATHFINDER-2     
1 43759U 18099B   26140.10018383  .00003352  00000+0  18665-3 0  9993
2 43759  97.4266 189.8280 0009759  46.3450 313.8589 15.14261771408376
