OBJECT_NAME,OBJECT_ID,EPOCH,MEAN_MOTION,ECCENTRICITY,INCLINATION,RA_OF_ASC_NODE,ARG_OF_PERICENTER,MEAN_ANOMALY,EPHEMERIS_TYPE,CLASSIFICATION_TYPE,NORAD_CAT_ID,ELEMENT_SET_NO,REV_AT_EPOCH,BSTAR,MEAN_MOTION_DOT,MEAN_MOTION_DDOT
S-NET D,2018-014G,2026-05-20T06:54:06.742656,15.16375702,.0009976,97.5381,45.2556,110.7437,249.4866,0,U,43186,999,45453,.1922E-3,.3667E-4,0
S-NET B,2018-014H,2026-05-20T07:09:49.245696,15.16345918,.0010672,97.5388,45.2521,107.0176,253.2226,0,U,43187,999,45453,.17034E-3,.324E-4,0
S-NET A,2018-014J,2026-05-20T10:02:44.860128,15.16383618,.0010591,97.5396,45.5750,107.3467,252.8925,0,U,43188,999,45455,.19405E-3,.3704E-4,0
S-NET C,2018-014K,2026-05-20T07:15:11.382048,15.16336828,.0012065,97.5414,45.5298,101.9220,258.3366,0,U,43189,999,45308,.16895E-3,.3213E-4,0
PAZ,2018-020A,2026-05-20T12:11:47.591808,15.19154189,.0001635,97.4454,148.2875,89.0568,271.0854,0,U,43215,999,45680,.5758E-4,.1142E-4,0
GOES 17,2018-022A,2026-05-20T12:05:49.348032,1.00271292,.0000393,0.8691,86.0721,319.5749,284.4834,0,U,43226,999,3014,0,-.188E-5,0
LKW-4,2018-025A,2026-05-20T10:51:37.302048,15.59964022,.0002797,97.6342,309.2062,64.9056,295.2490,0,U,43236,999,45570,.36886E-3,.29703E-3,0
ZHUHAI-1 OVS-02,2018-040B,2026-05-20T12:55:02.375616,15.24610484,.0003982,97.0404,159.4143,30.4565,329.6904,0,U,43440,999,44850,.20203E-3,.4918E-4,0
ZHUHAI-1 OHS-02,2018-040C,2026-05-20T12:55:26.107968,15.25431164,.0008278,97.0387,166.3266,341.4473,18.6463,0,U,43441,999,11006,.21464E-3,.5363E-4,0
GAOFEN-6,2018-048A,2026-05-20T11:47:12.735168,14.76596845,.0010495,97.7768,204.1876,264.5941,95.4072,0,U,43484,999,42930,.13957E-3,.926E-5,0
LUOJIA-1 01,2018-048B,2026-05-20T12:31:33.045600,14.87169838,.0008286,97.8104,219.1557,203.0869,156.9976,0,U,43485,999,43010,.218E-3,.1907E-4,0
PAKTES 1A,2018-056A,2026-05-20T13:40:41.559744,14.98927618,.0021635,98.1234,295.8849,197.7770,162.2697,0,U,43529,999,42778,.15644E-3,.1835E-4,0
PRSS-1,2018-056B,2026-05-20T12:10:00.549120,14.81940813,.000188,97.7826,209.1422,90.0311,270.1118,0,U,43530,999,42433,.10025E-3,.743E-5,0
HAIYANG-1C,2018-068A,2026-05-20T11:28:11.285760,14.34169624,.0011024,98.5195,213.1847,170.4607,189.6789,0,U,43609,999,40311,.83845E-4,.191E-5,0
SSTL S1-4,2018-071A,2026-05-20T12:49:30.908928,14.96182395,.000143,97.5061,13.2934,78.8405,281.2978,0,U,43618,999,41880,.11669E-3,.126E-4,0
HAIYANG-2B,2018-081A,2026-05-20T12:37:05.081664,13.79306422,.0001481,99.3289,149.6994,42.4666,317.6600,0,U,43655,999,38111,.17174E-4,-.26E-6,0
CFOSAT,2018-083A,2026-05-20T12:15:28.318752,15.16509778,.0001496,97.3611,145.8575,62.6188,297.5197,0,U,43662,999,41824,.11204E-3,.2118E-4,0
TEN-KOH,2018-084G,2026-05-20T02:14:18.102048,15.02790360,.00090161,98.0751,331.2758,207.9254,152.1488,0,U,43677,999,41194,.1015687E-3,.1293E-4,0
DIWATA-2B,2018-084H,2026-05-20T11:50:05.275968,15.00302426,.0011669,98.1113,335.5101,265.6986,94.2903,0,U,43678,999,41206,.1413E-3,.1707E-4,0
STARS-AO,2018-084J,2026-05-20T07:14:39.180768,15.16706442,.0000694,98.0526,352.5576,236.0668,124.0497,0,U,43679,999,41324,.19591E-3,.3763E-4,0
AUTCUBE 2,2018-084K,2026-05-20T00:00:50.143968,15.09872277,.00101119,98.0729,344.6820,132.6960,227.5121,0,U,43681,999,41267,.14159364E-3,.2223E-4,0
METOP-C,2018-087A,2026-05-20T11:25:35.675904,14.21503689,.0000549,98.6658,200.5838,148.5647,211.5563,0,U,43689,999,39089,.49071E-4,.64E-6,0
ES'HAIL 2,2018-090A,2026-05-20T07:30:40.676256,1.00270255,.0001281,0.0136,328.0862,119.2391,289.1097,0,U,43700,999,2739,0,.139E-5,0
MOHAMMED VI-B,2018-095A,2026-05-20T11:17:42.991872,14.77075901,.0001236,97.9560,213.1756,82.3357,277.7994,0,U,43717,999,40409,.42506E-4,.249E-5,0
HYSIS,2018-096A,2026-05-20T11:12:13.744800,14.78628642,.0001022,97.9846,207.4297,114.9800,245.1517,0,U,43719,999,40332,.94131E-4,.637E-5,0
COSMOS 2530 (RODNIK-S 16),2018-097A,2026-05-20T12:35:28.055328,12.42880457,.0020799,82.5157,239.4459,97.2476,263.0969,0,U,43751,999,33885,.21983E-3,.41E-6,0
COSMOS 2531 (RODNIK-S 17),2018-097B,2026-05-20T13:08:31.799328,12.42912083,.0017968,82.5202,240.4808,115.0427,245.2521,0,U,43752,999,33887,.29287E-3,.51E-6,0
COSMOS 2532 (RODNIK-S 18),2018-097C,2026-05-20T13:49:08.777856,12.42908677,.0019338,82.5146,239.2618,117.0479,243.2577,0,U,43753,999,33884,.41915E-4,.16E-6,0
MINXSS-2,2018-099A,2026-05-20T10:51:24.747264,15.44912684,.0006697,97.4542,215.9660,16.9082,343.2388,0,U,43758,999,40984,.52282E-3,.24549E-3,0
SIRION PATHFINDER-2,2018-099B,2026-05-20T02:24:15.882912,15.14261771,.00097595,97.4266,189.8280,46.3450,313.8589,0,U,43759,999,40837,.18664594E-3,.3352E-4,0
